{"fetched_at":"2026-07-12T05:53:10.731Z","source":"https://celestrak.org/NORAD/elements/gp.php?NAME=RADARSAT&FORMAT=JSON","constellation":"radarsat-2","records":[{"OBJECT_NAME":"RADARSAT-2","OBJECT_ID":"2007-061A","EPOCH":"2026-07-11T21:03:33.653376","CLASSIFICATION_TYPE":"U","MEAN_MOTION":14.29982046,"ECCENTRICITY":0.0001335,"INCLINATION":98.5785,"RA_OF_ASC_NODE":199.4569,"ARG_OF_PERICENTER":84.6492,"MEAN_ANOMALY":275.4842,"EPHEMERIS_TYPE":0,"NORAD_CAT_ID":32382,"ELEMENT_SET_NO":999,"REV_AT_EPOCH":96948,"BSTAR":-0.000049897,"MEAN_MOTION_DOT":-0.00000172,"MEAN_MOTION_DDOT":0}]}
